{
  "type": "FeatureCollection",
  "features": [
    {
      "type": "Feature",
      "properties": {
        "norad_id": 33724,
        "name": "FENGYUN 1C DEB",
        "group": "fengyun-1c-debris",
        "lat": -79.0600138856429,
        "lon": 133.90685669607495,
        "alt_km": 839.458901848564,
        "timestamp": "2025-12-21T09:37:22.941837+00:00",
        "meta_object_name": "FENGYUN 1C DEB",
        "meta_object_id": "1999-025DHM",
        "meta_epoch": "2025-12-19T07:23:39.732000",
        "meta_mean_motion": 14.19657899,
        "meta_eccentricity": 0.0027732,
        "meta_inclination": 98.6033,
        "meta_ra_of_asc_node": 3.4297,
        "meta_arg_of_pericenter": 162.7179,
        "meta_mean_anomaly": 210.0889,
        "meta_ephemeris_type": 0,
        "meta_classification_type": "U",
        "meta_norad_cat_id": 33724,
        "meta_element_set_no": 999,
        "meta_rev_at_epoch": 94055,
        "meta_bstar": 0.00033995,
        "meta_mean_motion_dot": 6.79e-06,
        "meta_mean_motion_ddot": 0,
        "tle_line1": "1 33724U 99025DHM 25353.30809875  .00000679  00000+0  33995-3 0  9995",
        "tle_line2": "2 33724  98.6033   3.4297 0027732 162.7179 210.0889 14.19657899940559"
      },
      "geometry": {
        "type": "Point",
        "coordinates": [
          133.90685669607495,
          -79.0600138856429
        ]
      }
    },
    {
      "type": "Feature",
      "properties": {
        "norad_id": 33726,
        "name": "FENGYUN 1C DEB",
        "group": "fengyun-1c-debris",
        "lat": 81.30701910790741,
        "lon": 35.43294589556569,
        "alt_km": 817.0390105551114,
        "timestamp": "2025-12-21T09:37:22.941848+00:00",
        "meta_object_name": "FENGYUN 1C DEB",
        "meta_object_id": "1999-025DHP",
        "meta_epoch": "2025-12-18T03:41:23.154144",
        "meta_mean_motion": 14.1431231,
        "meta_eccentricity": 0.01924925,
        "meta_inclination": 98.6391,
        "meta_ra_of_asc_node": 116.1898,
        "meta_arg_of_pericenter": 15.6036,
        "meta_mean_anomaly": 107.2674,
        "meta_ephemeris_type": 0,
        "meta_classification_type": "U",
        "meta_norad_cat_id": 33726,
        "meta_element_set_no": 999,
        "meta_rev_at_epoch": 92008,
        "meta_bstar": 0.00023538206,
        "meta_mean_motion_dot": 4.94e-06,
        "meta_mean_motion_ddot": 0,
        "tle_line1": "1 33726U 99025DHP 25352.15374021  .00000494  00000+0  23538-3 0  9996",
        "tle_line2": "2 33726  98.6391 116.1898 0192492  15.6036 107.2674 14.14312310920087"
      },
      "geometry": {
        "type": "Point",
        "coordinates": [
          35.43294589556569,
          81.30701910790741
        ]
      }
    },
    {
      "type": "Feature",
      "properties": {
        "norad_id": 33728,
        "name": "FENGYUN 1C DEB",
        "group": "fengyun-1c-debris",
        "lat": -46.7873722835672,
        "lon": 62.18696442011479,
        "alt_km": 654.7510506522385,
        "timestamp": "2025-12-21T09:37:22.941858+00:00",
        "meta_object_name": "FENGYUN 1C DEB",
        "meta_object_id": "1999-025DHR",
        "meta_epoch": "2025-12-19T03:08:31.669440",
        "meta_mean_motion": 14.92712258,
        "meta_eccentricity": 0.01477777,
        "meta_inclination": 98.9792,
        "meta_ra_of_asc_node": 49.9098,
        "meta_arg_of_pericenter": 194.4676,
        "meta_mean_anomaly": 165.2288,
        "meta_ephemeris_type": 0,
        "meta_classification_type": "U",
        "meta_norad_cat_id": 33728,
        "meta_element_set_no": 999,
        "meta_rev_at_epoch": 98395,
        "meta_bstar": 0.00039692023,
        "meta_mean_motion_dot": 4.984e-05,
        "meta_mean_motion_ddot": 0,
        "tle_line1": "1 33728U 99025DHR 25353.13092210  .00004984  00000+0  39692-3 0  9990",
        "tle_line2": "2 33728  98.9792  49.9098 0147777 194.4676 165.2288 14.92712258983955"
      },
      "geometry": {
        "type": "Point",
        "coordinates": [
          62.18696442011479,
          -46.7873722835672
        ]
      }
    },
    {
      "type": "Feature",
      "properties": {
        "norad_id": 33730,
        "name": "FENGYUN 1C DEB",
        "group": "fengyun-1c-debris",
        "lat": 34.391206702191724,
        "lon": 47.73089955496875,
        "alt_km": 661.6494640943465,
        "timestamp": "2025-12-21T09:37:22.941868+00:00",
        "meta_object_name": "FENGYUN 1C DEB",
        "meta_object_id": "1999-025DHT",
        "meta_epoch": "2025-12-17T10:18:00.572256",
        "meta_mean_motion": 14.63540792,
        "meta_eccentricity": 0.00393712,
        "meta_inclination": 99.0546,
        "meta_ra_of_asc_node": 49.6389,
        "meta_arg_of_pericenter": 356.5197,
        "meta_mean_anomaly": 3.5723,
        "meta_ephemeris_type": 0,
        "meta_classification_type": "U",
        "meta_norad_cat_id": 33730,
        "meta_element_set_no": 999,
        "meta_rev_at_epoch": 95748,
        "meta_bstar": 0.0011805307,
        "meta_mean_motion_dot": 6.139e-05,
        "meta_mean_motion_ddot": 0,
        "tle_line1": "1 33730U 99025DHT 25351.42917329  .00006139  00000+0  11805-2 0  9999",
        "tle_line2": "2 33730  99.0546  49.6389 0039371 356.5197   3.5723 14.63540792957483"
      },
      "geometry": {
        "type": "Point",
        "coordinates": [
          47.73089955496875,
          34.391206702191724
        ]
      }
    },
    {
      "type": "Feature",
      "properties": {
        "norad_id": 33731,
        "name": "FENGYUN 1C DEB",
        "group": "fengyun-1c-debris",
        "lat": -60.50383284408061,
        "lon": 34.9479768867877,
        "alt_km": 923.3689823888353,
        "timestamp": "2025-12-21T09:37:22.941878+00:00",
        "meta_object_name": "FENGYUN 1C DEB",
        "meta_object_id": "1999-025DHU",
        "meta_epoch": "2025-12-14T07:32:51.114336",
        "meta_mean_motion": 13.95346461,
        "meta_eccentricity": 0.01291818,
        "meta_inclination": 99.4471,
        "meta_ra_of_asc_node": 10.5718,
        "meta_arg_of_pericenter": 51.9301,
        "meta_mean_anomaly": 309.3431,
        "meta_ephemeris_type": 0,
        "meta_classification_type": "U",
        "meta_norad_cat_id": 33731,
        "meta_element_set_no": 999,
        "meta_rev_at_epoch": 90471,
        "meta_bstar": 0.0013457717,
        "meta_mean_motion_dot": 1.908e-05,
        "meta_mean_motion_ddot": 0,
        "tle_line1": "1 33731U 99025DHU 25348.31448049  .00001908  00000+0  13458-2 0  9997",
        "tle_line2": "2 33731  99.4471  10.5718 0129181  51.9301 309.3431 13.95346461904712"
      },
      "geometry": {
        "type": "Point",
        "coordinates": [
          34.9479768867877,
          -60.50383284408061
        ]
      }
    },
    {
      "type": "Feature",
      "properties": {
        "norad_id": 33733,
        "name": "FENGYUN 1C DEB",
        "group": "fengyun-1c-debris",
        "lat": -48.655066078904376,
        "lon": 91.62299657879453,
        "alt_km": 850.1130425702313,
        "timestamp": "2025-12-21T09:37:22.941892+00:00",
        "meta_object_name": "FENGYUN 1C DEB",
        "meta_object_id": "1999-025DHW",
        "meta_epoch": "2025-12-14T05:17:42.025920",
        "meta_mean_motion": 14.31053637,
        "meta_eccentricity": 0.00804283,
        "meta_inclination": 99.0978,
        "meta_ra_of_asc_node": 73.616,
        "meta_arg_of_pericenter": 166.2685,
        "meta_mean_anomaly": 251.3146,
        "meta_ephemeris_type": 0,
        "meta_classification_type": "U",
        "meta_norad_cat_id": 33733,
        "meta_element_set_no": 999,
        "meta_rev_at_epoch": 90469,
        "meta_bstar": 0.0039221093,
        "meta_mean_motion_dot": 0.00010671,
        "meta_mean_motion_ddot": 0,
        "tle_line1": "1 33733U 99025DHW 25348.22062530  .00010671  00000+0  39221-2 0  9999",
        "tle_line2": "2 33733  99.0978  73.6160 0080428 166.2685 251.3146 14.31053637904695"
      },
      "geometry": {
        "type": "Point",
        "coordinates": [
          91.62299657879453,
          -48.655066078904376
        ]
      }
    },
    {
      "type": "Feature",
      "properties": {
        "norad_id": 33737,
        "name": "FENGYUN 1C DEB",
        "group": "fengyun-1c-debris",
        "lat": -9.009245611729174,
        "lon": -170.07297474787194,
        "alt_km": 890.1362783641962,
        "timestamp": "2025-12-21T09:37:22.941902+00:00",
        "meta_object_name": "FENGYUN 1C DEB",
        "meta_object_id": "1999-025DJA",
        "meta_epoch": "2025-12-21T01:42:05.594112",
        "meta_mean_motion": 14.03029896,
        "meta_eccentricity": 0.0128389,
        "meta_inclination": 98.3387,
        "meta_ra_of_asc_node": 188.292,
        "meta_arg_of_pericenter": 259.478,
        "meta_mean_anomaly": 223.8841,
        "meta_ephemeris_type": 0,
        "meta_classification_type": "U",
        "meta_norad_cat_id": 33737,
        "meta_element_set_no": 999,
        "meta_rev_at_epoch": 88857,
        "meta_bstar": 0.0010359,
        "meta_mean_motion_dot": 1.691e-05,
        "meta_mean_motion_ddot": 0,
        "tle_line1": "1 33737U 99025DJA 25355.07089808  .00001691  00000+0  10359-2 0  9994",
        "tle_line2": "2 33737  98.3387 188.2920 0128389 259.4780 223.8841 14.03029896888575"
      },
      "geometry": {
        "type": "Point",
        "coordinates": [
          -170.07297474787194,
          -9.009245611729174
        ]
      }
    }
  ]
}